{"type": "FeatureCollection", "features": [ {"type": "Feature", "properties": {"norad_id": 37834, "name": "INTELSAT 18 (IS-18)", "group": "intelsat", "lat": 0.02752909311666001, "lon": 101.61484797114119, "alt_km": 35794.13996215072, "timestamp": "2025-12-04T13:52:00.115748+00:00", "meta": {"OBJECT_NAME": "INTELSAT 18 (IS-18)", "OBJECT_ID": "2011-056A", "EPOCH": "2025-12-03T18:01:38.697312", "MEAN_MOTION": 1.00271033, "ECCENTRICITY": 0.00021013, "INCLINATION": 0.0165, "RA_OF_ASC_NODE": 322.052, "ARG_OF_PERICENTER": 292.2737, "MEAN_ANOMALY": 268.919, "EPHEMERIS_TYPE": 0, "CLASSIFICATION_TYPE": "U", "NORAD_CAT_ID": 37834, "ELEMENT_SET_NO": 999, "REV_AT_EPOCH": 5185, "BSTAR": 0, "MEAN_MOTION_DOT": 7e-07, "MEAN_MOTION_DDOT": 0}, "tle": {"line1": "1 37834U 11056A   25337.75114233  .00000070  00000+0  00000+0 0  9999", "line2": "2 37834   0.0165 322.0520 0002101 292.2737 268.9190  1.00271033 51850"}}, "geometry": {"type": "Point", "coordinates": [101.61484797114119, 0.02752909311666001]}}, {"type": "Feature", "properties": {"norad_id": 38098, "name": "INTELSAT 22 (IS-22)", "group": "intelsat", "lat": 0.007090448905525836, "lon": -6.248186881212929, "alt_km": 35786.92147881591, "timestamp": "2025-12-04T13:52:00.115760+00:00", "meta": {"OBJECT_NAME": "INTELSAT 22 (IS-22)", "OBJECT_ID": "2012-011A", "EPOCH": "2025-12-04T03:49:27.121152", "MEAN_MOTION": 1.00270652, "ECCENTRICITY": 0.0001688, "INCLINATION": 0.0051, "RA_OF_ASC_NODE": 354.4289, "ARG_OF_PERICENTER": 265.171, "MEAN_ANOMALY": 303.1053, "EPHEMERIS_TYPE": 0, "CLASSIFICATION_TYPE": "U", "NORAD_CAT_ID": 38098, "ELEMENT_SET_NO": 999, "REV_AT_EPOCH": 523, "BSTAR": 0, "MEAN_MOTION_DOT": -4.2e-07, "MEAN_MOTION_DDOT": 0}, "tle": {"line1": "1 38098U 12011A   25338.15934168 -.00000042  00000+0  00000+0 0  9996", "line2": "2 38098   0.0051 354.4289 0001688 265.1710 303.1053  1.00270652  5234"}}, "geometry": {"type": "Point", "coordinates": [-6.248186881212929, 0.007090448905525836]}}, {"type": "Feature", "properties": {"norad_id": 38356, "name": "INTELSAT 19 (IS-19)", "group": "intelsat", "lat": 0.028731049331440307, "lon": 87.63038752946562, "alt_km": 35801.06351223702, "timestamp": "2025-12-04T13:52:00.115771+00:00", "meta": {"OBJECT_NAME": "INTELSAT 19 (IS-19)", "OBJECT_ID": "2012-030A", "EPOCH": "2025-12-03T17:54:54.751392", "MEAN_MOTION": 1.0026956, "ECCENTRICITY": 0.00034388, "INCLINATION": 0.0103, "RA_OF_ASC_NODE": 319.4914, "ARG_OF_PERICENTER": 298.7434, "MEAN_ANOMALY": 249.3378, "EPHEMERIS_TYPE": 0, "CLASSIFICATION_TYPE": "U", "NORAD_CAT_ID": 38356, "ELEMENT_SET_NO": 999, "REV_AT_EPOCH": 4849, "BSTAR": 0, "MEAN_MOTION_DOT": -3.9e-07, "MEAN_MOTION_DDOT": 0}, "tle": {"line1": "1 38356U 12030A   25337.74646703 -.00000039  00000+0  00000+0 0  9999", "line2": "2 38356   0.0103 319.4914 0003438 298.7434 249.3378  1.00269560 48497"}}, "geometry": {"type": "Point", "coordinates": [87.63038752946562, 0.028731049331440307]}}, {"type": "Feature", "properties": {"norad_id": 38740, "name": "INTELSAT 20 (IS-20)", "group": "intelsat", "lat": 0.00913359114540405, "lon": -9.877402112247411, "alt_km": 35799.48201094067, "timestamp": "2025-12-04T13:52:00.115783+00:00", "meta": {"OBJECT_NAME": "INTELSAT 20 (IS-20)", "OBJECT_ID": "2012-043A", "EPOCH": "2025-12-04T01:57:38.699424", "MEAN_MOTION": 1.00269018, "ECCENTRICITY": 0.000319, "INCLINATION": 0.0144, "RA_OF_ASC_NODE": 345.8183, "ARG_OF_PERICENTER": 203.5468, "MEAN_ANOMALY": 341.693, "EPHEMERIS_TYPE": 0, "CLASSIFICATION_TYPE": "U", "NORAD_CAT_ID": 38740, "ELEMENT_SET_NO": 999, "REV_AT_EPOCH": 4879, "BSTAR": 0, "MEAN_MOTION_DOT": 0, "MEAN_MOTION_DDOT": 0}, "tle": {"line1": "1 38740U 12043A   25338.08169791  .00000000  00000+0  00000+0 0  9992", "line2": "2 38740   0.0144 345.8183 0003190 203.5468 341.6930  1.00269018 48797"}}, "geometry": {"type": "Point", "coordinates": [-9.877402112247411, 0.00913359114540405]}}, {"type": "Feature", "properties": {"norad_id": 38749, "name": "INTELSAT 21 (IS-21)", "group": "intelsat", "lat": -0.04236865423603318, "lon": -136.38046695595466, "alt_km": 35777.22079008374, "timestamp": "2025-12-04T13:52:00.115795+00:00", "meta": {"OBJECT_NAME": "INTELSAT 21 (IS-21)", "OBJECT_ID": "2012-045A", "EPOCH": "2025-12-04T04:53:13.510176", "MEAN_MOTION": 1.00271946, "ECCENTRICITY": 0.0002258, "INCLINATION": 0.0178, "RA_OF_ASC_NODE": 332.2825, "ARG_OF_PERICENTER": 273.4171, "MEAN_ANOMALY": 202.8877, "EPHEMERIS_TYPE": 0, "CLASSIFICATION_TYPE": "U", "NORAD_CAT_ID": 38749, "ELEMENT_SET_NO": 999, "REV_AT_EPOCH": 4857, "BSTAR": 0, "MEAN_MOTION_DOT": -2.69e-06, "MEAN_MOTION_DDOT": 0}, "tle": {"line1": "1 38749U 12045A   25338.20362859 -.00000269  00000+0  00000+0 0  9995", "line2": "2 38749   0.0178 332.2825 0002258 273.4171 202.8877  1.00271946 48574"}}, "geometry": {"type": "Point", "coordinates": [-136.38046695595466, -0.04236865423603318]}}, {"type": "Feature", "properties": {"norad_id": 38867, "name": "INTELSAT 23 (IS-23)", "group": "intelsat", "lat": -0.007360979099377215, "lon": -131.37633345835053, "alt_km": 35779.40495560483, "timestamp": "2025-12-04T13:52:00.115806+00:00", "meta": {"OBJECT_NAME": "INTELSAT 23 (IS-23)", "OBJECT_ID": "2012-057A", "EPOCH": "2025-12-04T06:37:34.480128", "MEAN_MOTION": 1.00269622, "ECCENTRICITY": 0.00017544, "INCLINATION": 0.0473, "RA_OF_ASC_NODE": 109.2026, "ARG_OF_PERICENTER": 109.9852, "MEAN_ANOMALY": 260.5518, "EPHEMERIS_TYPE": 0, "CLASSIFICATION_TYPE": "U", "NORAD_CAT_ID": 38867, "ELEMENT_SET_NO": 999, "REV_AT_EPOCH": 4800, "BSTAR": 0, "MEAN_MOTION_DOT": -2.69e-06, "MEAN_MOTION_DDOT": 0}, "tle": {"line1": "1 38867U 12057A   25338.27609352 -.00000269  00000+0  00000+0 0  9998", "line2": "2 38867   0.0473 109.2026 0001754 109.9852 260.5518  1.00269622 48006"}}, "geometry": {"type": "Point", "coordinates": [-131.37633345835053, -0.007360979099377215]}}, {"type": "Feature", "properties": {"norad_id": 39360, "name": "FM-6", "group": "intelsat", "lat": 0.004333492880361907, "lon": 165.45999012313536, "alt_km": 35774.78999874662, "timestamp": "2025-12-04T13:52:00.115818+00:00", "meta": {"OBJECT_NAME": "FM-6", "OBJECT_ID": "2013-058A", "EPOCH": "2025-12-04T01:11:19.911264", "MEAN_MOTION": 1.00270187, "ECCENTRICITY": 0.00028288, "INCLINATION": 0.0111, "RA_OF_ASC_NODE": 103.4812, "ARG_OF_PERICENTER": 70.8052, "MEAN_ANOMALY": 160.5143, "EPHEMERIS_TYPE": 0, "CLASSIFICATION_TYPE": "U", "NORAD_CAT_ID": 39360, "ELEMENT_SET_NO": 999, "REV_AT_EPOCH": 4411, "BSTAR": 0, "MEAN_MOTION_DOT": 0, "MEAN_MOTION_DDOT": 0}, "tle": {"line1": "1 39360U 13058A   25338.04953601  .00000000  00000+0  00000+0 0  9995", "line2": "2 39360   0.0111 103.4812 0002828  70.8052 160.5143  1.00270187 44113"}}, "geometry": {"type": "Point", "coordinates": [165.45999012313536, 0.004333492880361907]}}, {"type": "Feature", "properties": {"norad_id": 40271, "name": "INTELSAT 30 (IS-30)", "group": "intelsat", "lat": -0.008440998003016932, "lon": -173.4165050646279, "alt_km": 35788.31307340412, "timestamp": "2025-12-04T13:52:00.115830+00:00", "meta": {"OBJECT_NAME": "INTELSAT 30 (IS-30)", "OBJECT_ID": "2014-062A", "EPOCH": "2025-12-03T23:34:36.676416", "MEAN_MOTION": 1.00269712, "ECCENTRICITY": 0.00011619, "INCLINATION": 0.0158, "RA_OF_ASC_NODE": 14.764, "ARG_OF_PERICENTER": 62.5851, "MEAN_ANOMALY": 254.3126, "EPHEMERIS_TYPE": 0, "CLASSIFICATION_TYPE": "U", "NORAD_CAT_ID": 40271, "ELEMENT_SET_NO": 999, "REV_AT_EPOCH": 482, "BSTAR": 0, "MEAN_MOTION_DOT": -1.34e-06, "MEAN_MOTION_DDOT": 0}, "tle": {"line1": "1 40271U 14062A   25337.98236894 -.00000134  00000+0  00000+0 0  9993", "line2": "2 40271   0.0158  14.7640 0001161  62.5851 254.3126  1.00269712  4823"}}, "geometry": {"type": "Point", "coordinates": [-173.4165050646279, -0.008440998003016932]}}, {"type": "Feature", "properties": {"norad_id": 40333, "name": "DIRECTV 14", "group": "intelsat", "lat": -0.02664267333596155, "lon": -177.5925365714516, "alt_km": 35784.71146183273, "timestamp": "2025-12-04T13:52:00.115841+00:00", "meta": {"OBJECT_NAME": "DIRECTV 14", "OBJECT_ID": "2014-078B", "EPOCH": "2025-12-04T06:24:20.746656", "MEAN_MOTION": 1.00271093, "ECCENTRICITY": 4.579e-05, "INCLINATION": 0.0181, "RA_OF_ASC_NODE": 327.1654, "ARG_OF_PERICENTER": 250.1659, "MEAN_ANOMALY": 212.8806, "EPHEMERIS_TYPE": 0, "CLASSIFICATION_TYPE": "U", "NORAD_CAT_ID": 40333, "ELEMENT_SET_NO": 999, "REV_AT_EPOCH": 4008, "BSTAR": 0, "MEAN_MOTION_DOT": -1.1e-06, "MEAN_MOTION_DDOT": 0}, "tle": {"line1": "1 40333U 14078B   25338.26690679 -.00000110  00000+0  00000+0 0  9990", "line2": "2 40333   0.0181 327.1654 0000457 250.1659 212.8806  1.00271093 40089"}}, "geometry": {"type": "Point", "coordinates": [-177.5925365714516, -0.02664267333596155]}}, {"type": "Feature", "properties": {"norad_id": 40663, "name": "DIRECTV 15", "group": "intelsat", "lat": 0.013508540396997297, "lon": 178.75095829015999, "alt_km": 35787.4142059651, "timestamp": "2025-12-04T13:52:00.115853+00:00", "meta": {"OBJECT_NAME": "DIRECTV 15", "OBJECT_ID": "2015-026A", "EPOCH": "2025-12-04T06:23:20.842944", "MEAN_MOTION": 1.00268509, "ECCENTRICITY": 3.632e-05, "INCLINATION": 0.0432, "RA_OF_ASC_NODE": 91.3921, "ARG_OF_PERICENTER": 193.1347, "MEAN_ANOMALY": 141.782, "EPHEMERIS_TYPE": 0, "CLASSIFICATION_TYPE": "U", "NORAD_CAT_ID": 40663, "ELEMENT_SET_NO": 999, "REV_AT_EPOCH": 3850, "BSTAR": 0, "MEAN_MOTION_DOT": -8.6e-07, "MEAN_MOTION_DDOT": 0}, "tle": {"line1": "1 40663U 15026A   25338.26621346 -.00000086  00000+0  00000+0 0  9997", "line2": "2 40663   0.0432  91.3921 0000363 193.1347 141.7820  1.00268509 38505"}}, "geometry": {"type": "Point", "coordinates": [178.75095829015999, 0.013508540396997297]}}]}